[{"OBJECT_NAME":"TIANPING 2B","OBJECT_ID":"2022-032C","EPOCH":"2026-03-09T22:22:05.849760","MEAN_MOTION":15.01267566,"ECCENTRICITY":0.00208707,"INCLINATION":97.6053,"RA_OF_ASC_NODE":116.3222,"ARG_OF_PERICENTER":130.0797,"MEAN_ANOMALY":230.2261,"EPHEMERIS_TYPE":0,"CLASSIFICATION_TYPE":"U","NORAD_CAT_ID":52155,"ELEMENT_SET_NO":999,"REV_AT_EPOCH":21538,"BSTAR":0.00026542484,"MEAN_MOTION_DOT":3.368e-5,"MEAN_MOTION_DDOT":0},{"OBJECT_NAME":"COSMOS 397 DEB","OBJECT_ID":"1971-015BE","EPOCH":"2026-03-09T06:01:25.739040","MEAN_MOTION":13.01060544,"ECCENTRICITY":0.09136727,"INCLINATION":65.7314,"RA_OF_ASC_NODE":123.9789,"ARG_OF_PERICENTER":341.9709,"MEAN_ANOMALY":15.0776,"EPHEMERIS_TYPE":0,"CLASSIFICATION_TYPE":"U","NORAD_CAT_ID":5277,"ELEMENT_SET_NO":999,"REV_AT_EPOCH":24893,"BSTAR":0.00026116289,"MEAN_MOTION_DOT":5.46e-6,"MEAN_MOTION_DDOT":0}]
